[Satellite]
VERSION=1.1
NAME=XM-5
NICKNAME=XM-5
TLE1=1 37185U 10053A   15053.23655926 -.00000229  00000-0  10000-3 0  9993
TLE2=2 37185   0.0005 198.7332 0001613 223.8437  89.1370  1.00270031 16003
